     2.100          NAVIGATION                              RINEX VERSION / TYPE
fic2rin                                 05/18/2017 00:09:36 PGM / RUN BY / DATE
                                                            END OF HEADER
 6 17  5 17  6  0  0.0  .351945869625D-03  .500222085975D-11  .000000000000D+00
     .720000000000D+02 -.775000000000D+02  .437232498203D-08 -.954630937696D+00
    -.417046248913D-05  .797932269052D-03  .941194593906D-05  .515367737579D+04
     .280800000000D+06 -.558793544769D-08 -.227489593395D+01 -.186264514923D-07
     .967087778768D+00  .203812500000D+03 -.113490797546D+01 -.792283001767D-08
     .124648049234D-09  .100000000000D+01  .194900000000D+04  .000000000000D+00
     .240000000000D+01  .000000000000D+00  .465661287308D-08  .720000000000D+02
     .273606000000D+06  .400000000000D+01
 7 17  5 17  6  0  0.0  .350588001311D-03 -.432009983342D-11  .000000000000D+00
     .790000000000D+02  .474062500000D+02  .423981946264D-08 -.169974194786D+01
     .230036675930D-05  .104856599355D-01  .858865678310D-05  .515374037552D+04
     .280800000000D+06  .763684511185D-07  .890611554963D+00 -.186264514923D-06
     .962570850962D+00  .216093750000D+03 -.260265145490D+01 -.772496463293D-08
    -.233581158164D-09  .100000000000D+01  .194900000000D+04  .000000000000D+00
     .240000000000D+01  .000000000000D+00 -.111758708954D-07  .790000000000D+02
     .273606000000D+06  .400000000000D+01
 8 17  5 17  6  0  0.0 -.599902123213D-04 -.136424205266D-11  .000000000000D+00
     .280000000000D+02 -.432500000000D+02  .440089760076D-08  .159765042494D+01
    -.222586095333D-05  .257626594976D-02  .380352139473D-05  .515363379669D+04
     .280800000000D+06  .614672899246D-07  .295418500493D+01 -.149011611938D-07
     .966913824642D+00  .308593750000D+03 -.683561103372D+00 -.815855412224D-08
     .353586156854D-10  .100000000000D+01  .194900000000D+04  .000000000000D+00
     .240000000000D+01  .000000000000D+00  .512227416039D-08  .280000000000D+02
     .273606000000D+06  .400000000000D+01
 9 17  5 17  6  0  0.0  .364938285202D-03  .795807864051D-11  .000000000000D+00
     .460000000000D+02  .765625000000D+01  .489663253583D-08  .109149869465D+01
     .217929482460D-06  .762998824939D-03  .671856105328D-05  .515362795830D+04
     .280800000000D+06 -.167638063431D-07 -.187613551452D+00  .931322574615D-08
     .953849752608D+00  .244406250000D+03  .193072544372D+01 -.813712465819D-08
    -.308584282345D-09  .100000000000D+01  .194900000000D+04  .000000000000D+00
     .240000000000D+01  .000000000000D+00  .139698386192D-08  .460000000000D+02
     .273606000000D+06  .400000000000D+01
10 17  5 17  6  0  0.0 -.516674481332D-04  .989075488178D-11  .000000000000D+00
     .440000000000D+02  .356250000000D+01  .470912472538D-08  .300599096738D+01
     .225380063057D-06  .251889030915D-02  .846572220325D-05  .515367256927D+04
     .280800000000D+06 -.353902578354D-07 -.122766928775D+01 -.558793544769D-07
     .959647393509D+00  .217906250000D+03 -.277055520763D+01 -.793854495798D-08
     .243581574722D-09  .100000000000D+01  .194900000000D+04  .000000000000D+00
     .240000000000D+01  .000000000000D+00  .186264514923D-08  .440000000000D+02
     .273606000000D+06  .400000000000D+01
11 17  5 17  6  0  0.0 -.688661355525D-03 -.272848410532D-11  .000000000000D+00
     .210000000000D+02 -.744062500000D+02  .588560230182D-08 -.168952224354D+01
    -.346451997757D-05  .167339512846D-01  .664405524731D-05  .515370956993D+04
     .280800000000D+06  .521540641785D-07 -.266813355968D+01  .424683094025D-06
     .900930206674D+00  .215843750000D+03  .164143264892D+01 -.865678916144D-08
     .614311302817D-10  .100000000000D+01  .194900000000D+04  .000000000000D+00
     .240000000000D+01  .000000000000D+00 -.121071934700D-07  .210000000000D+02
     .273606000000D+06  .400000000000D+01
13 17  5 17  6  0  0.0 -.820644199848D-04 -.136424205266D-11  .000000000000D+00
     .910000000000D+02  .821875000000D+01  .460626329793D-08 -.648850536806D+00
     .549480319023D-06  .376861449331D-02  .706315040588D-05  .515368339539D+04
     .280800000000D+06 -.111758708954D-07 -.616100897818D-01 -.316649675369D-07
     .969975352304D+00  .245156250000D+03  .183925492403D+01 -.807390773924D-08
    -.322870591713D-09  .100000000000D+01  .194900000000D+04  .000000000000D+00
     .240000000000D+01  .000000000000D+00 -.111758708954D-07  .910000000000D+02
     .273606000000D+06  .400000000000D+01
14 17  5 17  6  0  0.0 -.709905289114D-04 -.136424205266D-11  .000000000000D+00
     .650000000000D+02  .114375000000D+02  .477055585566D-08  .728080791670D+00
     .704079866409D-06  .907291716430D-02  .708550214767D-05  .515364748573D+04
     .280800000000D+06 -.838190317154D-07 -.100972601251D+00  .614672899246D-07
     .962477094006D+00  .247625000000D+03 -.196103718240D+01 -.826748723117D-08
    -.360372153804D-09  .100000000000D+01  .194900000000D+04  .000000000000D+00
     .240000000000D+01  .000000000000D+00 -.931322574615D-08  .650000000000D+02
     .273606000000D+06  .400000000000D+01
15 17  5 17  6  0  0.0 -.350032933056D-03 -.682121026330D-12  .000000000000D+00
     .980000000000D+02  .962500000000D+01  .562559147132D-08  .167888602743D+00
     .614672899246D-06  .913444696926D-02  .628456473351D-05  .515378958511D+04
     .280800000000D+06  .279396772385D-07 -.248916696151D+00  .104308128357D-06
     .929434745591D+00  .237250000000D+03  .582241742260D+00 -.865143179543D-08
    -.283940398686D-09  .100000000000D+01  .194900000000D+04  .000000000000D+00
     .240000000000D+01  .000000000000D+00 -.107102096081D-07  .980000000000D+02
     .273606000000D+06  .400000000000D+01
16 17  5 17  6  0  0.0  .334028154612D-04  .682121026330D-12  .000000000000D+00
     .101000000000D+03  .494375000000D+02  .376087094108D-08  .198876864372D+01
     .254809856415D-05  .936851499137D-02  .572018325329D-05  .515370039558D+04
     .280800000000D+06 -.163912773132D-06  .199393382271D+01  .391155481339D-07
     .989572699446D+00  .286687500000D+03  .448138502562D+00 -.785854162552D-08
     .771460705864D-10  .100000000000D+01  .194900000000D+04  .000000000000D+00
     .240000000000D+01  .000000000000D+00 -.107102096081D-07  .101000000000D+03
     .273606000000D+06  .400000000000D+01
18 17  5 17  6  0  0.0  .615841243416D-03  .181898940355D-11  .000000000000D+00
     .110000000000D+02 -.781250000000D+01  .539451041730D-08  .248908664731D+01
    -.497326254845D-06  .180746490369D-01  .806711614132D-05  .515375836372D+04
     .280800000000D+06  .162050127983D-06 -.126942522390D+01 -.244006514549D-06
     .925222131078D+00  .200687500000D+03 -.180484843962D+01 -.804890669784D-08
     .171792870148D-09  .100000000000D+01  .194900000000D+04  .000000000000D+00
     .240000000000D+01  .000000000000D+00 -.111758708954D-07  .110000000000D+02
     .273606000000D+06  .400000000000D+01
19 17  5 17  6  0  0.0 -.503359362483D-03  .147792889038D-11  .000000000000D+00
     .870000000000D+02 -.630312500000D+02  .420446084696D-08 -.215868673369D+01
    -.341050326824D-05  .102848925162D-01  .382401049137D-05  .515366898346D+04
     .280800000000D+06  .949949026108D-07  .305943129314D+01 -.260770320892D-07
     .977433358411D+00  .307218750000D+03  .971268510443D+00 -.799068998717D-08
     .155006456641D-09  .100000000000D+01  .194900000000D+04  .000000000000D+00
     .340000000000D+01  .000000000000D+00 -.153668224812D-07  .870000000000D+02
     .273606000000D+06  .400000000000D+01
20 17  5 17  6  0  0.0  .472533516586D-03  .147792889038D-11  .000000000000D+00
     .740000000000D+02 -.475000000000D+01  .554130224605D-08  .145403638177D+00
    -.745058059692D-07  .432900467422D-02  .863708555698D-05  .515367453003D+04
     .280800000000D+06  .372529029846D-07 -.132080354760D+01  .335276126862D-07
     .926564055592D+00  .195937500000D+03  .159705151798D+01 -.851785480284D-08
     .289297764699D-09  .100000000000D+01  .194900000000D+04  .000000000000D+00
     .240000000000D+01  .000000000000D+00 -.838190317154D-08  .740000000000D+02
     .273606000000D+06  .400000000000D+01
22 17  5 17  6  0  0.0  .753952190280D-05 -.121644916362D-10  .000000000000D+00
     .360000000000D+02  .100937500000D+02  .571595237807D-08  .535462446789D+00
     .627711415291D-06  .754303135909D-02  .835955142975D-05  .515382188225D+04
     .280800000000D+06 -.108033418655D-06 -.126954734245D+01 -.111758708954D-07
     .923257897306D+00  .202968750000D+03 -.173648645771D+01 -.862428780763D-08
     .236795577772D-09  .100000000000D+01  .194900000000D+04  .000000000000D+00
     .240000000000D+01  .000000000000D+00 -.176951289177D-07  .360000000000D+02
     .273606000000D+06  .400000000000D+01
23 17  5 17  6  0  0.0 -.211905222386D-03 -.682121026330D-12  .000000000000D+00
     .990000000000D+02  .818750000000D+01  .522557480902D-08 -.270942406844D+00
     .387430191040D-06  .116782740224D-01  .627152621746D-05  .515374284172D+04
     .280800000000D+06 -.167638063431D-07 -.185688601418D+00  .137835741043D-06
     .944719676487D+00  .247031250000D+03 -.246628862412D+01 -.851178312136D-08
    -.338228374284D-09  .100000000000D+01  .194900000000D+04  .000000000000D+00
     .240000000000D+01  .000000000000D+00 -.204890966415D-07  .990000000000D+02
     .273606000000D+06  .400000000000D+01
24 17  5 17  6  0  0.0 -.349259935319D-04 -.568434188608D-12  .000000000000D+00
     .190000000000D+02  .351562500000D+02  .470126725522D-08 -.885551653409D+00
     .174902379513D-05  .565533281770D-02  .884756445885D-05  .515369461632D+04
     .280800000000D+06  .175088644028D-06  .837335965490D+00 -.242143869400D-07
     .945644875619D+00  .202156250000D+03  .487017011973D+00 -.813855328913D-08
    -.438946855327D-09  .100000000000D+01  .194900000000D+04  .000000000000D+00
     .240000000000D+01  .000000000000D+00  .279396772385D-08  .190000000000D+02
     .273606000000D+06  .400000000000D+01
